{"spkid": "54016672", "covariance": {"epoch": "2458985.5", "labels": ["e", "q", "tp", "node", "peri", "i"], "data": [["6.048885519141648E-12", "-5.080502830235458E-12", "-3.414296821886947E-10", "1.348975753445982E-10", "-7.861898036006354E-13", "3.143971481790855E-11"], ["-5.080502830235458E-12", "4.268274600735259E-12", "2.865417797265962E-10", "-1.127401229569661E-10", "-1.932988214267717E-13", "-2.668114531754269E-11"], ["-3.414296821886947E-10", "2.865417797265962E-10", "2.257135800917771E-8", "-6.058268584900318E-9", "6.271548949405125E-10", "-1.733661259490477E-9"], ["1.348975753445982E-10", "-1.127401229569661E-10", "-6.058268584900318E-9", "7.54189471063664E-9", "-3.601871221881923E-9", "-7.765527801049605E-10"], ["-7.861898036006354E-13", "-1.932988214267717E-13", "6.271548949405125E-10", "-3.601871221881923E-9", "4.053273954835329E-9", "1.522557165223376E-9"], ["3.143971481790855E-11", "-2.668114531754269E-11", "-1.733661259490477E-9", "-7.765527801049605E-10", "1.522557165223376E-9", "8.581517648055901E-10"]], "elements": [{"name": "e", "sigma": 2.45944821436469e-06, "units": null, "value": ".3411113158087928", "title": "eccentricity", "label": "e"}, {"name": "q", "sigma": 2.06598030018083e-06, "title": "perihelion distance", "value": ".7182521846249711", "units": "au", "label": "q"}, {"label": "tp", "sigma": 0.000150237671737743, "name": "tp", "units": "TDB", "title": "time of perihelion passage", "value": "2459052.805721619717"}, {"units": "deg", "value": "47.38703409811951", "title": "longitude of the ascending node", "name": "om", "sigma": 8.68440827612143e-05, "label": "node"}, {"label": "peri", "sigma": 6.36653277289556e-05, "name": "w", "units": "deg", "value": "279.2993749194686", "title": "argument of perihelion"}, {"label": "i", "title": "inclination", "value": "8.283209502752353", "units": "deg", "name": "i", "sigma": 2.92942274997241e-05}]}, "elements": [{"label": "e", "units": null, "title": "eccentricity", "value": ".34108197264451", "sigma": "2.3991E-6", "name": "e"}, {"sigma": "8.1187E-7", "name": "a", "units": "au", "title": "semi-major axis", "value": "1.090103680933395", "label": "a"}, {"value": ".7182889670535909", "title": "perihelion distance", "units": "au", "sigma": "2.0817E-6", "name": "q", "label": "q"}, {"units": "deg", "title": "inclination; angle with respect to x-y ecliptic plane", "value": "8.288095446936618", "sigma": "2.9259E-5", "name": "i", "label": "i"}, {"label": "node", "title": "longitude of the ascending node", "value": "47.24274643684195", "units": "deg", "sigma": "8.5287E-5", "name": "om"}, {"label": "peri", "units": "deg", "title": "argument of perihelion", "value": "279.3945932196351", "sigma": "6.3507E-5", "name": "w"}, {"label": "M", "sigma": ".0019542", "name": "ma", "title": "mean anomaly", "value": "59.6814118235348", "units": "deg"}, {"label": "tp", "sigma": ".0021797", "name": "tp", "value": "2461131.581356065594", "title": "time of perihelion passage", "units": "TDB"}, {"sigma": ".00046442", "name": "per", "units": "d", "title": "sidereal orbital period", "value": "415.7192509075708", "label": "period"}, {"label": "n", "sigma": "9.6742E-7", "name": "n", "title": "mean motion", "value": ".8659690385135443", "units": "deg/d"}, {"label": "Q", "sigma": "1.0888E-6", "name": "ad", "units": "au", "title": "aphelion distance", "value": "1.461918394813199"}], "epoch": "2461200.5"}